start=new Date('2021-12-23T00:00:00.000Z').valueOf();
sats=[{"REV_AT_EPOCH":"6502","ECCENTRICITY":"0.00017160","OBJECT_TYPE":"PAYLOAD","TLE_LINE2":"2 46673  53.0557 323.4336 0001716  58.8518 301.2639 15.06385477 65020","APOAPSIS":"548.446","MEAN_MOTION_DOT":"-0.00002211","OBJECT_NAME":"STARLINK-1717","SEMIMAJOR_AXIS":"6925.393","CENTER_NAME":"EARTH","LAUNCH_DATE":"2020-10-18","TIME_SYSTEM":"UTC","INCLINATION":"53.0557","MEAN_ELEMENT_THEORY":"SGP4","SITE":"AFETR","DECAY_DATE":null,"EPOCH":"2021-12-22T03:24:50.916672","ARG_OF_PERICENTER":"58.8518","EPHEMERIS_TYPE":"0","PERIAPSIS":"546.070","RCS_SIZE":"LARGE","ELEMENT_SET_NO":"999","OBJECT_ID":"2020-073D","TLE_LINE1":"1 46673U 20073D   21356.14225598 -.00002211  00000-0 -12965-3 0  9995","MEAN_MOTION_DDOT":"0.0000000000000","BSTAR":"-0.00012965000000","GP_ID":"192219087","REF_FRAME":"TEME","MEAN_MOTION":"15.06385477","PERIOD":"95.593","NORAD_CAT_ID":"46673","RA_OF_ASC_NODE":"323.4336","FILE":"3247523","CLASSIFICATION_TYPE":"U","COUNTRY_CODE":"US","MEAN_ANOMALY":"301.2639"},{"COUNTRY_CODE":"US","CLASSIFICATION_TYPE":"U","MEAN_ANOMALY":"309.7959","NORAD_CAT_ID":"46674","PERIOD":"95.593","MEAN_MOTION":"15.06390769","FILE":"3247523","RA_OF_ASC_NODE":"308.4796","BSTAR":"-0.00006615400000","GP_ID":"192218837","TLE_LINE1":"1 46674U 20073E   21356.13167581 -.00001267  00000-0 -66154-4 0  9992","MEAN_MOTION_DDOT":"0.0000000000000","REF_FRAME":"TEME","RCS_SIZE":"LARGE","EPHEMERIS_TYPE":"0","ARG_OF_PERICENTER":"50.3206","PERIAPSIS":"545.859","ELEMENT_SET_NO":"999","OBJECT_ID":"2020-073E","MEAN_ELEMENT_THEORY":"SGP4","DECAY_DATE":null,"EPOCH":"2021-12-22T03:09:36.789984","SITE":"AFETR","LAUNCH_DATE":"2020-10-18","TIME_SYSTEM":"UTC","CENTER_NAME":"EARTH","INCLINATION":"53.0553","OBJECT_NAME":"STARLINK-1718","SEMIMAJOR_AXIS":"6925.377","OBJECT_TYPE":"PAYLOAD","ECCENTRICITY":"0.00019970","REV_AT_EPOCH":"6523","MEAN_MOTION_DOT":"-0.00001267","TLE_LINE2":"2 46674  53.0553 308.4796 0001997  50.3206 309.7959 15.06390769 65233","APOAPSIS":"548.625"},{"OBJECT_ID":"2020-073F","ELEMENT_SET_NO":"999","RCS_SIZE":"LARGE","EPHEMERIS_TYPE":"0","ARG_OF_PERICENTER":"52.5405","PERIAPSIS":"545.766","REF_FRAME":"TEME","BSTAR":"-0.00017317000000","GP_ID":"192226273","TLE_LINE1":"1 46675U 20073F   21356.72512078 -.00002859  00000-0 -17317-3 0  9997","MEAN_MOTION_DDOT":"0.0000000000000","FILE":"3247752","RA_OF_ASC_NODE":"305.8186","NORAD_CAT_ID":"46675","PERIOD":"95.593","MEAN_MOTION":"15.06381479","MEAN_ANOMALY":"307.5781","COUNTRY_CODE":"US","CLASSIFICATION_TYPE":"U","MEAN_MOTION_DOT":"-0.00002859","TLE_LINE2":"2 46675  53.0555 305.8186 0002172  52.5405 307.5781 15.06381479 65801","APOAPSIS":"548.775","ECCENTRICITY":"0.00021720","OBJECT_TYPE":"PAYLOAD","REV_AT_EPOCH":"6580","SEMIMAJOR_AXIS":"6925.405","OBJECT_NAME":"STARLINK-1720","INCLINATION":"53.0555","TIME_SYSTEM":"UTC","LAUNCH_DATE":"2020-10-18","CENTER_NAME":"EARTH","DECAY_DATE":null,"EPOCH":"2021-12-22T17:24:10.435392","SITE":"AFETR","MEAN_ELEMENT_THEORY":"SGP4"},{"MEAN_MOTION":"15.06387514","NORAD_CAT_ID":"46677","PERIOD":"95.593","RA_OF_ASC_NODE":"306.4300","FILE":"3247748","CLASSIFICATION_TYPE":"U","COUNTRY_CODE":"US","MEAN_ANOMALY":"308.8027","ARG_OF_PERICENTER":"51.3148","EPHEMERIS_TYPE":"0","PERIAPSIS":"545.808","RCS_SIZE":"LARGE","OBJECT_ID":"2020-073H","ELEMENT_SET_NO":"999","TLE_LINE1":"1 46677U 20073H   21356.58873239 -.00001443  00000-0 -77974-4 0  9996","MEAN_MOTION_DDOT":"0.0000000000000","BSTAR":"-0.00007797400000","GP_ID":"192226185","REF_FRAME":"TEME","CENTER_NAME":"EARTH","LAUNCH_DATE":"2020-10-18","TIME_SYSTEM":"UTC","INCLINATION":"53.0538","MEAN_ELEMENT_THEORY":"SGP4","SITE":"AFETR","DECAY_DATE":null,"EPOCH":"2021-12-22T14:07:46.478496","REV_AT_EPOCH":"6578","OBJECT_TYPE":"PAYLOAD","ECCENTRICITY":"0.00020850","TLE_LINE2":"2 46677  53.0538 306.4300 0002085  51.3148 308.8027 15.06387514 65783","APOAPSIS":"548.696","MEAN_MOTION_DOT":"-0.00001443","OBJECT_NAME":"STARLINK-1766","SEMIMAJOR_AXIS":"6925.387"},{"MEAN_ANOMALY":"307.5618","COUNTRY_CODE":"US","CLASSIFICATION_TYPE":"U","FILE":"3247748","RA_OF_ASC_NODE":"286.6816","NORAD_CAT_ID":"46679","PERIOD":"95.593","MEAN_MOTION":"15.06383979","REF_FRAME":"TEME","GP_ID":"192226179","BSTAR":"-0.00009508500000","MEAN_MOTION_DDOT":"0.0000000000000","TLE_LINE1":"1 46679U 20073K   21356.52792502 -.00001697  00000-0 -95085-4 0  9999","OBJECT_ID":"2020-073K","ELEMENT_SET_NO":"999","RCS_SIZE":"LARGE","PERIAPSIS":"545.825","EPHEMERIS_TYPE":"0","ARG_OF_PERICENTER":"52.5559","EPOCH":"2021-12-22T12:40:12.721728","DECAY_DATE":null,"SITE":"AFETR","MEAN_ELEMENT_THEORY":"SGP4","INCLINATION":"53.0553","TIME_SYSTEM":"UTC","LAUNCH_DATE":"2020-10-18","CENTER_NAME":"EARTH","SEMIMAJOR_AXIS":"6925.398","OBJECT_NAME":"STARLINK-1773","MEAN_MOTION_DOT":"-0.00001697","APOAPSIS":"548.700","TLE_LINE2":"2 46679  53.0553 286.6816 0002076  52.5559 307.5618 15.06383979 66067","ECCENTRICITY":"0.00020760","OBJECT_TYPE":"PAYLOAD","REV_AT_EPOCH":"6606"},{"MEAN_ELEMENT_THEORY":"SGP4","DECAY_DATE":null,"EPOCH":"2021-12-22T09:32:26.911680","SITE":"AFETR","LAUNCH_DATE":"2020-10-18","TIME_SYSTEM":"UTC","CENTER_NAME":"EARTH","INCLINATION":"53.0548","OBJECT_NAME":"STARLINK-1774","SEMIMAJOR_AXIS":"6925.385","ECCENTRICITY":"0.00016740","OBJECT_TYPE":"PAYLOAD","REV_AT_EPOCH":"6506","MEAN_MOTION_DOT":"-0.00001482","TLE_LINE2":"2 46680  53.0548 322.2690 0001674  57.9210 302.1941 15.06388220 65069","APOAPSIS":"548.409","COUNTRY_CODE":"US","CLASSIFICATION_TYPE":"U","MEAN_ANOMALY":"302.1941","PERIOD":"95.593","NORAD_CAT_ID":"46680","MEAN_MOTION":"15.06388220","FILE":"3247523","RA_OF_ASC_NODE":"322.2690","BSTAR":"-0.00008064100000","GP_ID":"192219338","TLE_LINE1":"1 46680U 20073L   21356.39753370 -.00001482  00000-0 -80641-4 0  9990","MEAN_MOTION_DDOT":"0.0000000000000","REF_FRAME":"TEME","RCS_SIZE":"LARGE","EPHEMERIS_TYPE":"0","ARG_OF_PERICENTER":"57.9210","PERIAPSIS":"546.090","OBJECT_ID":"2020-073L","ELEMENT_SET_NO":"999"},{"SEMIMAJOR_AXIS":"6925.411","OBJECT_NAME":"STARLINK-1775","MEAN_MOTION_DOT":"-0.00001476","TLE_LINE2":"2 46681  53.0547 321.2298 0002017  54.2727 305.8450 15.06379644 65578","APOAPSIS":"548.673","OBJECT_TYPE":"PAYLOAD","ECCENTRICITY":"0.00020170","REV_AT_EPOCH":"6557","DECAY_DATE":null,"EPOCH":"2021-12-22T15:12:08.874720","SITE":"AFETR","MEAN_ELEMENT_THEORY":"SGP4","INCLINATION":"53.0547","TIME_SYSTEM":"UTC","LAUNCH_DATE":"2020-10-18","CENTER_NAME":"EARTH","REF_FRAME":"TEME","BSTAR":"-0.00008020800000","GP_ID":"192226190","TLE_LINE1":"1 46681U 20073M   21356.63343605 -.00001476  00000-0 -80208-4 0  9996","MEAN_MOTION_DDOT":"0.0000000000000","OBJECT_ID":"2020-073M","ELEMENT_SET_NO":"999","RCS_SIZE":"LARGE","EPHEMERIS_TYPE":"0","ARG_OF_PERICENTER":"54.2727","PERIAPSIS":"545.879","MEAN_ANOMALY":"305.8450","COUNTRY_CODE":"US","CLASSIFICATION_TYPE":"U","FILE":"3247748","RA_OF_ASC_NODE":"321.2298","NORAD_CAT_ID":"46681","PERIOD":"95.593","MEAN_MOTION":"15.06379644"},{"REF_FRAME":"TEME","MEAN_MOTION_DDOT":"0.0000000000000","TLE_LINE1":"1 46682U 20073N   21356.19480681 -.00002610  00000-0 -15644-3 0  9996","GP_ID":"192217835","BSTAR":"-0.00015644000000","OBJECT_ID":"2020-073N","ELEMENT_SET_NO":"999","PERIAPSIS":"546.066","ARG_OF_PERICENTER":"48.5867","EPHEMERIS_TYPE":"0","RCS_SIZE":"LARGE","MEAN_ANOMALY":"311.5272","CLASSIFICATION_TYPE":"U","COUNTRY_CODE":"US","RA_OF_ASC_NODE":"323.1872","FILE":"3247523","MEAN_MOTION":"15.06379434","NORAD_CAT_ID":"46682","PERIOD":"95.593","SEMIMAJOR_AXIS":"6925.412","OBJECT_NAME":"STARLINK-1776","APOAPSIS":"548.487","TLE_LINE2":"2 46682  53.0548 323.1872 0001748  48.5867 311.5272 15.06379434 65034","MEAN_MOTION_DOT":"-0.00002610","REV_AT_EPOCH":"6503","ECCENTRICITY":"0.00017480","OBJECT_TYPE":"PAYLOAD","SITE":"AFETR","EPOCH":"2021-12-22T04:40:31.308384","DECAY_DATE":null,"MEAN_ELEMENT_THEORY":"SGP4","INCLINATION":"53.0548","CENTER_NAME":"EARTH","LAUNCH_DATE":"2020-10-18","TIME_SYSTEM":"UTC"},{"RCS_SIZE":"LARGE","PERIAPSIS":"545.973","ARG_OF_PERICENTER":"56.6420","EPHEMERIS_TYPE":"0","OBJECT_ID":"2020-073Q","ELEMENT_SET_NO":"999","GP_ID":"192224305","BSTAR":"-0.00007724900000","MEAN_MOTION_DDOT":"0.0000000000000","TLE_LINE1":"1 46684U 20073Q   21356.78041265 -.00001432  00000-0 -77249-4 0  9995","REF_FRAME":"TEME","NORAD_CAT_ID":"46684","PERIOD":"95.593","MEAN_MOTION":"15.06386770","FILE":"3247689","RA_OF_ASC_NODE":"305.5619","COUNTRY_CODE":"US","CLASSIFICATION_TYPE":"U","MEAN_ANOMALY":"303.4746","OBJECT_TYPE":"PAYLOAD","ECCENTRICITY":"0.00018500","REV_AT_EPOCH":"6581","MEAN_MOTION_DOT":"-0.00001432","APOAPSIS":"548.535","TLE_LINE2":"2 46684  53.0541 305.5619 0001850  56.6420 303.4746 15.06386770 65814","OBJECT_NAME":"STARLINK-1780","SEMIMAJOR_AXIS":"6925.389","TIME_SYSTEM":"UTC","LAUNCH_DATE":"2020-10-18","CENTER_NAME":"EARTH","INCLINATION":"53.0541","MEAN_ELEMENT_THEORY":"SGP4","EPOCH":"2021-12-22T18:43:47.652960","DECAY_DATE":null,"SITE":"AFETR"},{"REF_FRAME":"TEME","BSTAR":"-0.00006160200000","GP_ID":"192218838","TLE_LINE1":"1 46685U 20073R   21356.43806880 -.00001199  00000-0 -61602-4 0  9996","MEAN_MOTION_DDOT":"0.0000000000000","ELEMENT_SET_NO":"999","OBJECT_ID":"2020-073R","RCS_SIZE":"LARGE","EPHEMERIS_TYPE":"0","ARG_OF_PERICENTER":"58.9832","PERIAPSIS":"545.940","MEAN_ANOMALY":"301.1338","COUNTRY_CODE":"US","CLASSIFICATION_TYPE":"U","FILE":"3247523","RA_OF_ASC_NODE":"322.0926","PERIOD":"95.592","NORAD_CAT_ID":"46685","MEAN_MOTION":"15.06398338","SEMIMAJOR_AXIS":"6925.354","OBJECT_NAME":"STARLINK-1781","MEAN_MOTION_DOT":"-0.00001199","TLE_LINE2":"2 46685  53.0572 322.0926 0001847  58.9832 301.1338 15.06398338 65064","APOAPSIS":"548.498","OBJECT_TYPE":"PAYLOAD","ECCENTRICITY":"0.00018470","REV_AT_EPOCH":"6506","DECAY_DATE":null,"EPOCH":"2021-12-22T10:30:49.144320","SITE":"AFETR","MEAN_ELEMENT_THEORY":"SGP4","INCLINATION":"53.0572","LAUNCH_DATE":"2020-10-18","TIME_SYSTEM":"UTC","CENTER_NAME":"EARTH"}];
